[{"OBJECT_NAME":"GUANGCHUAN 01","OBJECT_ID":"2024-221A","EPOCH":"2026-03-09T23:52:27.422976","MEAN_MOTION":15.16881016,"ECCENTRICITY":0.00068686,"INCLINATION":49.9429,"RA_OF_ASC_NODE":284.8759,"ARG_OF_PERICENTER":260.2955,"MEAN_ANOMALY":99.7221,"EPHEMERIS_TYPE":0,"CLASSIFICATION_TYPE":"U","NORAD_CAT_ID":62111,"ELEMENT_SET_NO":999,"REV_AT_EPOCH":7115,"BSTAR":0.00030732874,"MEAN_MOTION_DOT":5.834e-5,"MEAN_MOTION_DDOT":0},{"OBJECT_NAME":"HAWK-12C","OBJECT_ID":"2025-138A","EPOCH":"2026-03-09T22:54:55.356768","MEAN_MOTION":15.17353041,"ECCENTRICITY":0.00157924,"INCLINATION":97.4363,"RA_OF_ASC_NODE":73.1446,"ARG_OF_PERICENTER":124.4693,"MEAN_ANOMALY":235.8035,"EPHEMERIS_TYPE":0,"CLASSIFICATION_TYPE":"U","NORAD_CAT_ID":64621,"ELEMENT_SET_NO":999,"REV_AT_EPOCH":3881,"BSTAR":0.00031482945,"MEAN_MOTION_DOT":6.237e-5,"MEAN_MOTION_DDOT":0}]
